{
  "norad_id": 48124,
  "name": "STARLINK-2465",
  "history": [
    {
      "epoch": "2026-04-14T20:00:01.999008Z",
      "apogee_km": 471.55329027055996,
      "perigee_km": 469.8054723300529,
      "latitude_deg": 50.908336039900604,
      "longitude_deg": -89.46809224855035,
      "height_km": 475.8794854667645,
      "semi_major_axis_km": 6848.816381300307,
      "eccentricity": 0.0001276,
      "inclination_deg": 53.1598,
      "raan_deg": 347.0454,
      "arg_perigee_deg": 94.2139,
      "mean_anomaly_deg": 341.1948,
      "mean_motion_rev_day": 15.31720334
    },
    {
      "epoch": "2026-04-15T20:00:01.999008Z",
      "apogee_km": 471.5820043370286,
      "perigee_km": 469.786243438346,
      "latitude_deg": -10.208958965992709,
      "longitude_deg": 26.10289658055879,
      "height_km": 473.6856543610891,
      "semi_major_axis_km": 6848.8211238876875,
      "eccentricity": 0.0001311,
      "inclination_deg": 53.16,
      "raan_deg": 342.3901,
      "arg_perigee_deg": 88.6536,
      "mean_anomaly_deg": 103.9519,
      "mean_motion_rev_day": 15.31718743
    },
    {
      "epoch": "2026-04-16T16:00:01.998720Z",
      "apogee_km": 471.60527838844337,
      "perigee_km": 469.73281481530194,
      "latitude_deg": 48.78541567464546,
      "longitude_deg": 15.412721573107637,
      "height_km": 475.3194768103863,
      "semi_major_axis_km": 6848.806046601872,
      "eccentricity": 0.0001367,
      "inclination_deg": 53.1605,
      "raan_deg": 338.5093,
      "arg_perigee_deg": 92.6556,
      "mean_anomaly_deg": 17.6526,
      "mean_motion_rev_day": 15.31723801
    },
    {
      "epoch": "2026-04-17T21:16:31.531584Z",
      "apogee_km": 471.6532873036422,
      "perigee_km": 469.81724162698447,
      "latitude_deg": -1.3069472368272315e-05,
      "longitude_deg": 167.68671582684357,
      "height_km": 471.54015257866973,
      "semi_major_axis_km": 6848.872264465313,
      "eccentricity": 0.00013404,
      "inclination_deg": 53.1614,
      "raan_deg": 332.8315,
      "arg_perigee_deg": 84.133,
      "mean_anomaly_deg": 275.9824,
      "mean_motion_rev_day": 15.31701587
    },
    {
      "epoch": "2026-04-18T08:14:14.640000Z",
      "apogee_km": 471.68530255753467,
      "perigee_km": 469.76748383017366,
      "latitude_deg": 1.986046365041554e-05,
      "longitude_deg": 0.6800297897270162,
      "height_km": 471.59517863021006,
      "semi_major_axis_km": 6848.863393193854,
      "eccentricity": 0.00014001,
      "inclination_deg": 53.1618,
      "raan_deg": 330.7046,
      "arg_perigee_deg": 88.2138,
      "mean_anomaly_deg": 271.9024,
      "mean_motion_rev_day": 15.31704563
    },
    {
      "epoch": "2026-04-20T07:13:04.445760Z",
      "apogee_km": 471.52604911633443,
      "perigee_km": 470.00326432197926,
      "latitude_deg": -4.445612076425984e-05,
      "longitude_deg": 4.926935303440531,
      "height_km": 471.9175081979819,
      "semi_major_axis_km": 6848.901656719157,
      "eccentricity": 0.00011117,
      "inclination_deg": 53.1608,
      "raan_deg": 321.5885,
      "arg_perigee_deg": 109.4719,
      "mean_anomaly_deg": 250.6402,
      "mean_motion_rev_day": 15.31691727
    },
    {
      "epoch": "2026-04-21T19:14:09.701952Z",
      "apogee_km": 471.5541946992071,
      "perigee_km": 469.93922792008016,
      "latitude_deg": 9.235578666113057e-07,
      "longitude_deg": 176.18915276430965,
      "height_km": 471.8533677450167,
      "semi_major_axis_km": 6848.883711309643,
      "eccentricity": 0.0001179,
      "inclination_deg": 53.1605,
      "raan_deg": 314.6018,
      "arg_perigee_deg": 104.9102,
      "mean_anomaly_deg": 255.203,
      "mean_motion_rev_day": 15.31697747
    },
    {
      "epoch": "2026-04-22T20:17:30.630624Z",
      "apogee_km": 471.50453552308954,
      "perigee_km": 469.88958045221534,
      "latitude_deg": -9.481967372278339e-06,
      "longitude_deg": 154.46313394057466,
      "height_km": 471.747886768452,
      "semi_major_axis_km": 6848.834057987652,
      "eccentricity": 0.0001179,
      "inclination_deg": 53.1606,
      "raan_deg": 309.742,
      "arg_perigee_deg": 100.8463,
      "mean_anomaly_deg": 259.2671,
      "mean_motion_rev_day": 15.31714404
    },
    {
      "epoch": "2026-04-22T23:25:25.729536Z",
      "apogee_km": 471.49512067221804,
      "perigee_km": 469.87496332996216,
      "latitude_deg": -2.00996048235526e-05,
      "longitude_deg": 106.74842139712311,
      "height_km": 471.66662043120743,
      "semi_major_axis_km": 6848.82204200109,
      "eccentricity": 0.00011828,
      "inclination_deg": 53.1611,
      "raan_deg": 309.1355,
      "arg_perigee_deg": 95.8569,
      "mean_anomaly_deg": 264.2567,
      "mean_motion_rev_day": 15.31718435
    },
    {
      "epoch": "2026-04-24T19:16:19.839360Z",
      "apogee_km": 471.4822068119629,
      "perigee_km": 469.9042363289136,
      "latitude_deg": 1.0172422520349564e-05,
      "longitude_deg": 158.71579547646678,
      "height_km": 471.52321500137214,
      "semi_major_axis_km": 6848.830221570438,
      "eccentricity": 0.0001152,
      "inclination_deg": 53.1604,
      "raan_deg": 300.6291,
      "arg_perigee_deg": 84.9914,
      "mean_anomaly_deg": 275.1219,
      "mean_motion_rev_day": 15.31715691
    },
    {
      "epoch": "2026-04-25T18:45:45.138816Z",
      "apogee_km": 471.51880632465236,
      "perigee_km": 469.9586324357788,
      "latitude_deg": 1.0024809880157345e-05,
      "longitude_deg": 160.83926589866644,
      "height_km": 471.6223763998288,
      "semi_major_axis_km": 6848.875719380216,
      "eccentricity": 0.0001139,
      "inclination_deg": 53.1608,
      "raan_deg": 296.0727,
      "arg_perigee_deg": 88.8786,
      "mean_anomaly_deg": 271.2346,
      "mean_motion_rev_day": 15.31700428
    },
    {
      "epoch": "2026-04-26T18:15:08.777664Z",
      "apogee_km": 471.4434959279997,
      "perigee_km": 469.90182887299306,
      "latitude_deg": 5.045772259976596e-05,
      "longitude_deg": 162.96810533351618,
      "height_km": 471.4384602365522,
      "semi_major_axis_km": 6848.809662400496,
      "eccentricity": 0.00011255,
      "inclination_deg": 53.1588,
      "raan_deg": 291.5147,
      "arg_perigee_deg": 80.0677,
      "mean_anomaly_deg": 280.0452,
      "mean_motion_rev_day": 15.31722588
    },
    {
      "epoch": "2026-04-27T17:44:34.273248Z",
      "apogee_km": 471.5137136211288,
      "perigee_km": 469.98778143098025,
      "latitude_deg": -6.904694877871865e-05,
      "longitude_deg": 165.09256835177212,
      "height_km": 471.31340122101454,
      "semi_major_axis_km": 6848.887747526054,
      "eccentricity": 0.0001114,
      "inclination_deg": 53.1586,
      "raan_deg": 286.9602,
      "arg_perigee_deg": 63.8517,
      "mean_anomaly_deg": 296.2598,
      "mean_motion_rev_day": 15.31696393
    },
    {
      "epoch": "2026-04-28T17:13:58.910880Z",
      "apogee_km": 471.45223958122097,
      "perigee_km": 470.0071287108658,
      "latitude_deg": -3.1304301997423736e-05,
      "longitude_deg": 167.21853310180876,
      "height_km": 471.4266295555534,
      "semi_major_axis_km": 6848.866684146043,
      "eccentricity": 0.0001055,
      "inclination_deg": 53.1594,
      "raan_deg": 282.4035,
      "arg_perigee_deg": 73.7652,
      "mean_anomaly_deg": 286.3465,
      "mean_motion_rev_day": 15.31703459
    },
    {
      "epoch": "2026-04-29T19:51:19.094112Z",
      "apogee_km": 471.63901150793663,
      "perigee_km": 469.83090931038805,
      "latitude_deg": 3.8836731368965694e-05,
      "longitude_deg": 121.62485106408491,
      "height_km": 471.59960949630374,
      "semi_major_axis_km": 6848.871960409162,
      "eccentricity": 0.000132,
      "inclination_deg": 53.1598,
      "raan_deg": 277.2372,
      "arg_perigee_deg": 87.8499,
      "mean_anomaly_deg": 272.2654,
      "mean_motion_rev_day": 15.31701689
    },
    {
      "epoch": "2026-04-30T14:38:49.904448Z",
      "apogee_km": 471.63150599951587,
      "perigee_km": 469.74602426637375,
      "latitude_deg": 6.9231605766535556e-06,
      "longitude_deg": -164.67040492626958,
      "height_km": 471.54066145266097,
      "semi_major_axis_km": 6848.825765132944,
      "eccentricity": 0.00013765,
      "inclination_deg": 53.1602,
      "raan_deg": 273.5921,
      "arg_perigee_deg": 87.1638,
      "mean_anomaly_deg": 272.9521,
      "mean_motion_rev_day": 15.31717186
    },
    {
      "epoch": "2026-05-01T18:50:07.374912Z",
      "apogee_km": 471.463170562748,
      "perigee_km": 469.9853232828873,
      "latitude_deg": -5.460725780100931e-05,
      "longitude_deg": 125.88110671955597,
      "height_km": 471.6770770416211,
      "semi_major_axis_km": 6848.861246922817,
      "eccentricity": 0.00010789,
      "inclination_deg": 53.1589,
      "raan_deg": 268.1241,
      "arg_perigee_deg": 94.1921,
      "mean_anomaly_deg": 265.9203,
      "mean_motion_rev_day": 15.31705283
    },
    {
      "epoch": "2026-05-03T17:48:56.232000Z",
      "apogee_km": 471.5706566844674,
      "perigee_km": 469.9241848697129,
      "latitude_deg": -7.983551461583181e-06,
      "longitude_deg": 130.13455568578746,
      "height_km": 471.64797897455804,
      "semi_major_axis_km": 6848.88442077709,
      "eccentricity": 0.0001202,
      "inclination_deg": 53.159,
      "raan_deg": 259.0105,
      "arg_perigee_deg": 90.1331,
      "mean_anomaly_deg": 269.9808,
      "mean_motion_rev_day": 15.31697509
    },
    {
      "epoch": "2026-05-04T15:44:22.936128Z",
      "apogee_km": 471.5400319853161,
      "perigee_km": 469.89219792585754,
      "latitude_deg": 2.6521370935728957e-05,
      "longitude_deg": 156.11832092035073,
      "height_km": 471.34722879130607,
      "semi_major_axis_km": 6848.8531149555865,
      "eccentricity": 0.0001203,
      "inclination_deg": 53.1586,
      "raan_deg": 254.7559,
      "arg_perigee_deg": 71.0486,
      "mean_anomaly_deg": 289.0646,
      "mean_motion_rev_day": 15.31708011
    }
  ]
}